BEIDOU-3 M13 (C32)      
1 43622U 18072A   24177.33255877 -.00000013  00000+0  00000+0 0  9999
2 43622  55.9988  86.6081 0006964 310.8053  49.1595  1.86231469 39215
BEIDOU-3 M14 (C33)      
1 43623U 18072B   24178.27192095 -.00000016  00000+0  00000+0 0  9999
2 43623  56.0014  86.5699 0005418 340.3227  19.6830  1.86231471 39224
BEIDOU-3 M16 (C35)      
1 43647U 18078A   24178.43453519 -.00000070  00000+0  00000+0 0  9990
2 43647  54.7088 325.1122 0006856  24.3438 335.6848  1.86232128 38745
BEIDOU-3 M15 (C34)      
1 43648U 18078B   24178.02675753 -.00000068  00000+0  00000+0 0  9999
2 43648  54.7047 325.1291 0003952  41.1978 318.8278  1.86232206 38756
BEIDOU-3 G1 (C59)       
1 43683U 18085A   24178.48632662 -.00000274  00000+0  00000+0 0  9997
2 43683   2.2143 109.2446 0004014 355.4486 125.5275  1.00270088 20823
COSMOS 2529 (757)       
1 43687U 18086A   24177.93001877  .00000071  00000+0  00000+0 0  9993
2 43687  64.2979 216.9831 0011525 259.1141 100.8324  2.13102026 43916
BEIDOU-3 M17 (C36)      
1 43706U 18093A   24178.17719187  .00000078  00000+0  00000+0 0  9997
2 43706  54.2152 206.7666 0010257 279.6202  80.3237  1.86228191 38098
BEIDOU-3 M18 (C37)      
1 43707U 18093B   24176.43161998  .00000084  00000+0  00000+0 0  9993
2 43707  54.2159 206.8179 0008113 304.2481  55.7453  1.86229755 38079
GPS BIII-1  (PRN 04)    
1 43873U 18109A   24178.23991736  .00000038  00000+0  00000+0 0  9995
2 43873  55.3006 120.6710 0029225 195.1224 290.5818  2.00556257 40567
BEIDOU-3 IGSO-1 (C38)   
1 44204U 19023A   24177.22716906 -.00000212  00000+0  00000+0 0  9997
2 44204  57.6527  45.1385 0018937 207.8304 217.1494  1.00246772 19104
BEIDOU-2 G8 (C01)       
1 44231U 19027A   24177.84307762 -.00000243  00000+0  00000+0 0  9999
2 44231   1.9693  73.9755 0002628 149.1081 139.4129  1.00272744 18849
COSMOS 2534 (758)       
1 44299U 19030A   24178.31813378  .00000069  00000+0  00000+0 0  9990
2 44299  64.3708 216.9242 0013337 278.5769 153.3573  2.13102106 39550
BEIDOU-3 IGSO-2 (C39)   
1 44337U 19035A   24177.87896459 -.00000088  00000+0  00000+0 0  9991
2 44337  55.1817 165.1921 0035604 205.1661 337.2704  1.00294305 18463
GPS BIII-2  (PRN 18)    
1 44506U 19056A   24176.70866289 -.00000069  00000+0  00000+0 0  9990
2 44506  55.8406 359.7864 0042936 188.0977 174.0163  2.00571680 35587
BEIDOU-3 M24 (C46)      
1 44542U 19061A   24178.11199355  .00000078  00000+0  00000+0 0  9995
2 44542  54.4427 207.0570 0007691 341.5565  18.4763  1.86231212 32369
BEIDOU-3 M23 (C45)      
1 44543U 19061B   24177.26418279  .00000080  00000+0  00000+0 0  9993
2 44543  54.4412 207.0546 0005360 320.2319 103.6662  1.86231538 32354
BEIDOU-3 IGSO-3 (C40)   
1 44709U 19073A   24175.72519622 -.00000189  00000+0  00000+0 0  9994
2 44709  56.0384 288.6583 0039278 182.0502 177.9480  1.00247548 17183
BEIDOU-3 M22 (C44)      
1 44793U 19078A   24178.49476227 -.00000070  00000+0  00000+0 0  9991
2 44793  54.5564 325.0411 0005852  33.5581 326.4753  1.86232094 31233
BEIDOU-3 M21 (C43)      
1 44794U 19078B   24177.01367947 -.00000066  00000+0  00000+0 0  9992
2 44794  54.5313 325.0684 0003707  32.3761 327.6407  1.86232564 31200
COSMOS 2544 (759)       
1 44850U 19088A   24177.77507465  .00000015  00000+0  00000+0 0  9993
2 44850  65.1935  97.8774 0013316 259.9914  99.8767  2.13102051 35321
BEIDOU-3 M19 (C41)      
1 44864U 19090A   24177.40102306 -.00000013  00000+0  00000+0 0  9995
2 44864  55.9329  86.7769 0017637 285.0850 167.4324  1.86231576 30791
BEIDOU-3 M20 (C42)      
1 44865U 19090B   24177.39187524 -.00000013  00000+0  00000+0 0  9999
2 44865  55.9345  86.8106 0015715 298.7328 237.3824  1.86231516 30776
BEIDOU-3 G2 (C60)       
1 45344U 20017A   24176.75679926 -.00000134  00000+0  00000+0 0  9998
2 45344   2.3242  29.9464 0001819 110.6149 125.2934  1.00270074 16015
COSMOS 2545 (760)       
1 45358U 20018A   24177.50274607 -.00000043  00000+0  00000+0 0  9994
2 45358  64.7428 337.6656 0007754 236.1578 123.7699  2.13102475 33287
BEIDOU-3 G3 (C61)       
1 45807U 20040A   24178.00257885 -.00000348  00000+0  00000+0 0  9991
2 45807   0.7914  43.4896 0004718 280.8838  61.6729  1.00266079 14858
GPS BIII-3  (PRN 23)    
1 45854U 20041A   24177.54702108 -.00000046  00000+0  00000+0 0  9990
2 45854  56.1290  57.0986 0043191 192.6563 349.6934  2.00558386 29563
GALAXY 30 (WAAS/PRN 135)
1 46114U 20056C   24178.48140216  .00000041  00000+0  00000+0 0  9990
2 46114   0.0116  60.0009 0002282  32.2422 231.1490  1.00272223 14172
COSMOS 2547 (705K)      
1 46805U 20075A   24176.75151150  .00000078  00000+0  00000+0 0  9995
2 46805  64.5996 216.6209 0008804 241.2692 118.7246  2.13103034 28518
GPS BIII-4  (PRN 14)    
1 46826U 20078A   24178.27417671  .00000028  00000+0  00000+0 0  9998
2 46826  54.1765 240.0396 0046944 197.2740 128.7072  2.00560037 27040
GPS BIII-5  (PRN 11)    
1 48859U 21054A   24177.55957991 -.00000071  00000+0  00000+0 0  9994
2 48859  55.3661   1.4002 0015172 218.1454 136.5135  2.00557356 22270
QZS-1R (QZSS/PRN 196)   
1 49336U 21096A   24175.67755657 -.00000253  00000+0  00000+0 0  9999
2 49336  35.9569  90.4319 0757168 271.6304 287.9988  1.00256684  9751
GSAT0223 (PRN E34)      
1 49809U 21116A   24177.19702223 -.00000070  00000+0  00000+0 0  9994
2 49809  57.2976   1.1498 0001849 148.6591  29.9716  1.70475600 15872
GSAT0224 (PRN E10)      
1 49810U 21116B   24176.42896711 -.00000068  00000+0  00000+0 0  9994
2 49810  57.2987   1.1690 0001797 126.3618  53.4036  1.70475670 15880
COSMOS 2557 (706K)      
1 52984U 22075A   24176.91649285 -.00000044  00000+0  00000+0 0  9995
2 52984  64.6695 339.8154 0010599 280.0690  79.8140  2.13102077 15321
COSMOS 2559 (707K)      
1 54031U 22130A   24175.92087919 -.00000045  00000+0  00000+0 0  9993
2 54031  64.6413 339.9674 0005747 212.2486 147.7190  2.13101401 13273
COSMOS 2564 (761)       
1 54377U 22161A   24177.51973475  .00000073  00000+0  00000+0 0  9998
2 54377  64.7409 216.7013 0011376 224.5173 135.4695  2.13102103 12256
GPS BIII-6  (PRN 28)    
1 55268U 23009A   24177.00830507  .00000085  00000+0  00000+0 0  9995
2 55268  55.0881 176.8607 0000743  98.0430 261.1879  2.00563588 10752
BEIDOU-3 G4             
1 56564U 23066A   24177.91775413 -.00000106  00000+0  00000+0 0  9997
2 56564   2.1012 288.2017 0006010 202.8303 273.8584  1.00269639  4172
IRNSS-1J (NVS-01)       
1 56759U 23076A   24178.48423808 -.00000330  00000+0  00000+0 0  9994
2 56759   3.9744 265.9722 0004168   0.5404 312.4507  1.00267350  3971
COSMOS 2569 (703K)      
1 57517U 23114A   24177.06763234  .00000014  00000+0  00000+0 0  9991
2 57517  64.9202  97.0477 0011250 297.7800  62.1233  2.13103686  6874
BEIDOU-3 M25            
1 58654U 23207A   24178.17037390 -.00000016  00000+0  00000+0 0  9990
2 58654  55.1168  86.7605 0002852 311.9618  48.0394  1.86232249  3417
BEIDOU-3 M26            
1 58655U 23207B   24176.89544787 -.00000014  00000+0  00000+0 0  9999
2 58655  55.1178  86.7894 0003195 284.0761  75.9111  1.86231962  3371
GSAT0225 (PRN E29)      
1 59598U 24079A   24162.57006490  .00000018  00000+0  00000+0 0  9991
2 59598  54.6844 121.6940 0021386 255.0217 286.2987  1.72327500   744
GSAT0227 (PRN E06)      
1 59600U 24079C   24162.27733522  .00000017  00000+0  00000+0 0  9994
2 59600  54.6843 121.7029 0021406 254.7950 104.9177  1.72327413   794
